{"spkid": "50910127", "covariance": {"epoch": "2459671.5", "data": [["5.036754986589136E-14", "-1.077092180671452E-13", "7.894408792276992E-11", "1.07903778789744E-11", "-4.517014527667658E-13", "-5.44674826365962E-12"], ["-1.077092180671452E-13", "2.434519572289096E-13", "-1.300810112706011E-10", "-2.426522142869656E-11", "9.536060983598056E-12", "1.0142418204904E-11"], ["7.894408792276992E-11", "-1.300810112706011E-10", "2.389046486765898E-7", "1.288646042113936E-8", "2.541800966383584E-8", "-1.290490641330868E-8"], ["1.07903778789744E-11", "-2.426522142869656E-11", "1.288646042113936E-8", "4.100938528510353E-9", "-2.46300703269968E-9", "-1.221298660919904E-9"], ["-4.517014527667658E-13", "9.536060983598056E-12", "2.541800966383584E-8", "-2.46300703269968E-9", "7.44095065813614E-9", "-7.534133469452049E-10"], ["-5.44674826365962E-12", "1.0142418204904E-11", "-1.290490641330868E-8", "-1.221298660919904E-9", "-7.534133469452049E-10", "1.040024316387148E-9"]], "elements": [{"label": "e", "sigma": 2.24427159376693e-07, "name": "e", "units": null, "title": "eccentricity", "value": ".6289413398453627"}, {"label": "q", "title": "perihelion distance", "value": "1.026276093696878", "units": "au", "name": "q", "sigma": 4.93408509481656e-07}, {"label": "tp", "sigma": 0.000488778731816954, "name": "tp", "units": "TDB", "title": "time of perihelion passage", "value": "2460502.739809934102"}, {"sigma": 6.40385706313808e-05, "name": "om", "units": "deg", "title": "longitude of the ascending node", "value": "31.48396266016944", "label": "node"}, {"label": "peri", "title": "argument of perihelion", "value": ".3413833320371814", "units": "deg", "name": "w", "sigma": 8.62609451497961e-05}, {"title": "inclination", "value": "24.08434627464193", "units": "deg", "name": "i", "sigma": 3.22494080005688e-05, "label": "i"}], "labels": ["e", "q", "tp", "node", "peri", "i"]}, "elements": [{"label": "e", "value": ".6289966768846347", "title": "eccentricity", "units": null, "name": "e", "sigma": "2.2489E-7"}, {"value": "2.763690329740863", "title": "semi-major axis", "units": "au", "sigma": "4.881E-7", "name": "a", "label": "a"}, {"label": "q", "units": "au", "value": "1.02533829639566", "title": "perihelion distance", "name": "q", "sigma": "4.941E-7"}, {"label": "i", "units": "deg", "value": "24.08473049173899", "title": "inclination; angle with respect to x-y ecliptic plane", "name": "i", "sigma": "3.2239E-5"}, {"label": "node", "units": "deg", "title": "longitude of the ascending node", "value": "31.48755111505695", "sigma": "6.4064E-5", "name": "om"}, {"sigma": "8.632E-5", "name": "w", "units": "deg", "title": "argument of perihelion", "value": ".3829593742393114", "label": "peri"}, {"label": "M", "units": "deg", "title": "mean anomaly", "value": "149.7347290237207", "sigma": ".00014437", "name": "ma"}, {"label": "tp", "units": "TDB", "value": "2460502.504640215352", "title": "time of perihelion passage", "name": "tp", "sigma": ".00048871"}, {"label": "period", "units": "d", "value": "1678.156638482086", "title": "sidereal orbital period", "name": "per", "sigma": ".00044457"}, {"label": "n", "units": "deg/d", "value": ".2145210951974213", "title": "mean motion", "sigma": "5.683E-8", "name": "n"}, {"label": "Q", "name": "ad", "sigma": "7.9511E-7", "title": "aphelion distance", "value": "4.502042363086066", "units": "au"}], "epoch": "2461200.5"}